NORAD_CAT_ID,OBJECT_NAME,OBJECT_TYPE,EPOCH,MEAN_MOTION,ECCENTRICITY,INCLINATION,RA_OF_ASC_NODE,ARG_OF_PERICENTER,MEAN_ANOMALY,BSTAR,MEAN_MOTION_DOT,MEAN_MOTION_DDOT,TLE_LINE0,TLE_LINE1,TLE_LINE2,SEMIMAJOR_AXIS,PERIOD,APOGEE,PERIGEE,DECAYED
55392.0,STARLINK-5085,PAYLOAD,2023-08-30 15:27:18,15.69928978,0.0003583,70.0004,216.5595,269.8772,90.2013,3.594e-05,4.112e-05,0.0,0 STARLINK-5085,1 55392U 23014B   23242.64396459  .00004112  00000-0  35940-4 0  9996,2 55392  70.0004 216.5595 0003583 269.8772  90.2013 15.69928978 33319,6737.237,91.724,361.516,356.688,0.0
55392.0,STARLINK-5085,PAYLOAD,2023-08-31 00:37:49,15.69928374,0.0003101,70.0003,215.4852,269.5842,90.4999,1.3038e-05,1.356e-05,0.0,0 STARLINK-5085,1 55392U 23014B   23243.02626606  .00001356  00000-0  13038-4 0  9990,2 55392  70.0003 215.4852 0003101 269.5842  90.4999 15.69928374 34319,6737.239,91.724,361.193,357.015,0.0
55392.0,STARLINK-5085,PAYLOAD,2023-09-01 04:09:25,15.69807108,0.0004309,70.002,212.2638,268.7242,91.346,-0.00020193,-0.00024311,0.0,0 STARLINK-5085,1 55392U 23014B   23244.17320734 -.00024311  00000-0 -20193-3 0  9997,2 55392  70.0020 212.2638 0004309 268.7242  91.3460 15.69807108 33550,6737.586,91.731,362.354,356.548,0.0
55392.0,STARLINK-5085,PAYLOAD,2023-09-01 10:16:21,15.69923334,0.0003573,70.001,211.5439,263.5941,96.4848,1.4108e-06,-4.3e-07,0.0,0 STARLINK-5085,1 55392U 23014B   23244.42802229 -.00000043  00000-0  14108-5 0  9995,2 55392  70.0010 211.5439 0003573 263.5941  96.4848 15.69923334 34536,6737.253,91.724,361.526,356.711,0.0
55392.0,STARLINK-5085,PAYLOAD,2023-09-01 14:51:37,15.69915009,0.000305,70.001,211.0065,273.1364,86.9483,8.7512e-06,8.39e-06,0.0,0 STARLINK-5085,1 55392U 23014B   23244.61918144  .00000839  00000-0  87512-5 0  9991,2 55392  70.0010 211.0065 0003050 273.1364  86.9483 15.69915009 33620,6737.277,91.725,361.197,357.087,0.0
55392.0,STARLINK-5085,PAYLOAD,2023-09-01 20:58:37,15.69919518,0.0003261,69.9997,210.2898,268.3688,91.7134,-1.8189e-05,-2.399e-05,0.0,0 STARLINK-5085,1 55392U 23014B   23244.87404436 -.00002399  00000-0 -18189-4 0  9991,2 55392  69.9997 210.2898 0003261 268.3688  91.7134 15.69919518 34600,6737.264,91.724,361.326,356.932,0.0
55392.0,STARLINK-5085,PAYLOAD,2023-09-02 09:12:39,15.69907225,0.0002714,70.0017,208.857,264.0337,96.055,-3.8959e-05,-4.89e-05,0.0,0 STARLINK-5085,1 55392U 23014B   23245.38378950 -.00004890  00000-0 -38959-4 0  9994,2 55392  70.0017 208.8570 0002714 264.0337  96.0550 15.69907225 34682,6737.299,91.725,360.993,357.336,0.0
55392.0,STARLINK-5085,PAYLOAD,2023-09-02 15:19:39,15.6991449,0.0003482,69.9954,208.1408,267.1924,92.8873,7.6843e-05,9.033e-05,0.0,0 STARLINK-5085,1 55392U 23014B   23245.63864712  .00009033  00000-0  76843-4 0  9994,2 55392  69.9954 208.1408 0003482 267.1924  92.8873 15.69914490 33785,6737.279,91.725,361.49,356.798,0.0
55392.0,STARLINK-5085,PAYLOAD,2023-09-03 03:33:40,15.69912208,0.0003339,70.0003,206.7078,270.6776,89.4037,2.6684e-05,2.995e-05,0.0,0 STARLINK-5085,1 55392U 23014B   23246.14838714  .00002995  00000-0  26684-4 0  9992,2 55392  70.0003 206.7078 0003339 270.6776  89.4037 15.69912208 33863,6737.285,91.725,361.4,356.901,0.0
55392.0,STARLINK-5085,PAYLOAD,2023-09-03 06:37:11,15.69911533,0.0003462,70.0,206.3496,271.7368,88.3431,2.5315e-05,2.831e-05,0.0,0 STARLINK-5085,1 55392U 23014B   23246.27582256  .00002831  00000-0  25315-4 0  9992,2 55392  70.0000 206.3496 0003462 271.7368  88.3431 15.69911533 34829,6737.287,91.725,361.485,356.82,0.0
55392.0,STARLINK-5085,PAYLOAD,2023-09-04 08:36:58,15.69927996,0.0003376,70.0009,203.3039,275.2549,84.8261,3.54e-05,4.047e-05,0.0,0 STARLINK-5085,1 55392U 23014B   23247.35900740  .00004047  00000-0  35400-4 0  9991,2 55392  70.0009 203.3039 0003376 275.2549  84.8261 15.69927996 34059,6737.24,91.724,361.379,356.831,0.0
55392.0,STARLINK-5085,PAYLOAD,2023-09-04 14:43:58,15.6992715,0.0003338,70.001,202.5873,276.0345,84.047,2.8262e-05,3.187e-05,0.0,0 STARLINK-5085,1 55392U 23014B   23247.61387408  .00003187  00000-0  28262-4 0  9992,2 55392  70.0010 202.5873 0003338 276.0345  84.0470 15.69927150 35034,6737.242,91.724,361.356,356.859,0.0
55392.0,STARLINK-5085,PAYLOAD,2023-09-05 19:47:44,15.69456518,0.0003891,70.0003,199.1855,265.3075,94.7676,-0.00083403,-0.00097458,0.0,0 STARLINK-5085,1 55392U 23014B   23248.82482072 -.00097458  00000-0 -83403-3 0  9992,2 55392  70.0003 199.1855 0003891 265.3075  94.7676 15.69456518 34289,6738.589,91.752,363.076,357.832,0.0
55392.0,STARLINK-5085,PAYLOAD,2023-09-05 22:51:30,15.69108308,0.0003146,70.0008,198.828,224.9192,135.1749,-0.0014116,-0.00161205,0.0,0 STARLINK-5085,1 55392U 23014B   23248.95243237 -.00161205  00000-0 -14116-2 0  9990,2 55392  70.0008 198.8280 0003146 224.9192 135.1749 15.69108308 34301,6739.586,91.772,363.571,359.331,0.0
55392.0,STARLINK-5085,PAYLOAD,2023-09-06 09:34:37,15.68482989,0.0003371,70.0007,197.5765,267.8118,92.2691,-0.0022587,-0.00248713,0.0,0 STARLINK-5085,1 55392U 23014B   23249.39904297 -.00248713  00000-0 -22587-2 0  9990,2 55392  70.0007 197.5765 0003371 267.8118  92.2691 15.68482989 34373,6741.377,91.808,365.515,360.97,0.0
55392.0,STARLINK-5085,PAYLOAD,2023-09-06 11:06:32,15.68331111,0.0004653,70.0005,197.3973,246.9472,113.1232,-0.0025041,-0.00273321,0.0,0 STARLINK-5085,1 55392U 23014B   23249.46287942 -.00273321  00000-0 -25041-2 0  9990,2 55392  70.0005 197.3973 0004653 246.9472 113.1232 15.68331111 35325,6741.812,91.817,366.814,360.541,0.0
55392.0,STARLINK-5085,PAYLOAD,2023-09-06 22:00:00,15.66544022,0.0003552,70.0006,196.1255,266.0318,134.2733,-0.0097379,-0.00928643,0.0,0 STARLINK-5085,1 55392U 23014B   23249.91667824 -.00928643  00000-0 -97379-2 0  9998,2 55392  70.0006 196.1255 0003552 266.0318 134.2733 15.66544022 34453,6746.939,91.922,371.2,366.407,0.0
55392.0,STARLINK-5085,PAYLOAD,2023-09-07 14:00:01,15.65213041,0.0003313,70.0005,194.2626,266.1319,291.1396,-0.010075,-0.00912121,0.0,0 STARLINK-5085,1 55392U 23014B   23250.58334491 -.00912121  00000-0 -10075-1 0  9995,2 55392  70.0005 194.2626 0003313 266.1319 291.1396 15.65213041  6012,6750.763,92.0,374.865,370.392,0.0
55392.0,STARLINK-5085,PAYLOAD,2023-09-07 22:00:00,15.64594692,0.0003543,70.0008,193.3328,261.9992,12.5535,-0.010667,-0.00939562,0.0,0 STARLINK-5085,1 55392U 23014B   23250.91667824 -.00939562  00000-0 -10667-1 0  9996,2 55392  70.0008 193.3328 0003543 261.9992  12.5535 15.64594692 34619,6752.542,92.037,376.799,372.014,0.0
55392.0,STARLINK-5085,PAYLOAD,2023-09-08 14:00:01,15.63247267,0.0003535,70.0002,191.4751,265.1571,161.6727,-0.010685,-0.00896281,0.0,0 STARLINK-5085,1 55392U 23014B   23251.58334491 -.00896281  00000-0 -10685-1 0  9991,2 55392  70.0002 191.4751 0003535 265.1571 161.6727 15.63247267  6027,6756.421,92.116,380.675,375.898,0.0
55392.0,STARLINK-5085,PAYLOAD,2023-09-08 22:00:00,15.62632611,0.00035,70.0005,190.5476,262.0947,239.6693,-0.011463,-0.00934802,0.0,0 STARLINK-5085,1 55392U 23014B   23251.91667824 -.00934802  00000-0 -11463-1 0  9994,2 55392  70.0005 190.5476 0003500 262.0947 239.6693 15.62632611  6072,6758.193,92.152,382.423,377.693,0.0
55392.0,STARLINK-5085,PAYLOAD,2023-09-09 06:00:00,15.6194025,0.0003369,70.0005,189.621,265.9109,310.0425,-0.01094,-0.00873869,0.0,0 STARLINK-5085,1 55392U 23014B   23252.25001157 -.00873869  00000-0 -10940-1 0  9997,2 55392  70.0005 189.6210 0003369 265.9109 310.0425 15.61940250 34823,6760.19,92.193,384.332,379.777,0.0
55392.0,STARLINK-5085,PAYLOAD,2023-09-09 14:00:01,15.61292243,0.0003399,70.0004,188.6956,261.2845,28.0602,-0.011595,-0.00900639,0.0,0 STARLINK-5085,1 55392U 23014B   23252.58334491 -.00900639  00000-0 -11595-1 0  9996,2 55392  70.0004 188.6956 0003399 261.2845  28.0602 15.61292243  5910,6762.06,92.231,386.224,381.627,0.0
55392.0,STARLINK-5085,PAYLOAD,2023-09-09 22:00:00,15.60684074,0.0003574,70.0006,187.7711,263.3397,98.5894,-0.012548,-0.00947386,0.0,0 STARLINK-5085,1 55392U 23014B   23252.91667824 -.00947386  00000-0 -12548-1 0  9991,2 55392  70.0006 187.7711 0003574 263.3397  98.5894 15.60684074 34925,6763.817,92.267,388.099,383.265,0.0
55392.0,STARLINK-5085,PAYLOAD,2023-09-10 14:00:01,15.59330118,0.0003396,70.0003,185.924,265.3427,239.4767,-0.012282,-0.0088605,0.0,0 STARLINK-5085,1 55392U 23014B   23253.58334491 -.00886050  00000-0 -12282-1 0  9991,2 55392  70.0003 185.9240 0003396 265.3427 239.4767 15.59330118  6027,6767.732,92.347,391.895,387.298,0.0
55392.0,STARLINK-5085,PAYLOAD,2023-09-10 22:00:00,15.58718984,0.0003376,70.0008,185.0021,261.7434,313.3182,-0.013321,-0.00934121,0.0,0 STARLINK-5085,1 55392U 23014B   23253.91667824 -.00934121  00000-0 -13321-1 0  9995,2 55392  70.0008 185.0021 0003376 261.7434 313.3182 15.58718984 35087,6769.501,92.384,393.651,389.08,0.0
55392.0,STARLINK-5085,PAYLOAD,2023-09-11 14:00:01,15.57371009,0.0003449,70.0008,183.1606,261.5849,91.6705,-0.013186,-0.00883543,0.0,0 STARLINK-5085,1 55392U 23014B   23254.58334491 -.00883543  00000-0 -13186-1 0  9990,2 55392  70.0008 183.1606 0003449 261.5849  91.6705 15.57371009  5901,6773.406,92.464,397.607,392.935,0.0
55392.0,STARLINK-5085,PAYLOAD,2023-09-11 22:00:01,15.56763815,0.0003451,70.001,182.2414,262.6836,158.5307,-0.014433,-0.00939682,0.0,0 STARLINK-5085,1 55392U 23014B   23254.91668981 -.00939682  00000-0 -14433-1 0  9993,2 55392  70.0010 182.2414 0003451 262.6836 158.5307 15.56763815 35231,6775.167,92.5,399.37,394.694,0.0
55392.0,STARLINK-5085,PAYLOAD,2023-09-12 14:00:01,15.55414623,0.0003362,70.0011,180.4053,261.8809,292.8322,-0.014177,-0.00883156,0.0,0 STARLINK-5085,1 55392U 23014B   23255.58335648 -.00883156  00000-0 -14177-1 0  9997,2 55392  70.0011 180.4053 0003362 261.8809 292.8322 15.55414623  6059,6779.085,92.58,403.229,398.671,0.0
55392.0,STARLINK-5085,PAYLOAD,2023-09-12 22:00:00,15.54806323,0.0003467,70.0015,179.489,261.6169,358.5784,-0.015451,-0.00935862,0.0,0 STARLINK-5085,1 55392U 23014B   23255.91667824 -.00935862  00000-0 -15451-1 0  9996,2 55392  70.0015 179.4890 0003467 261.6169 358.5784 15.54806323 35395,6780.853,92.616,405.069,400.367,0.0
